# From MPEC 2021-Y10
C/2021 K1 (ATLAS),e,16.2759,140.9048,184.2878,12.71590,0.0217362,0.80357791,4.9665,12/19.0/2021,2000,g 11.0,4.0
# From MPEC 2021-R75
C/2021 K2 (MASTER),h,09/09.2278/2021,100.8381,282.2481,343.3311,1.000614,5.466688,2000,8.0,4.0
# From MPEC 2021-U31
C/2021 K3 (Catalina),h,02/02.6287/2022,134.7787,114.4509,181.9886,1.003413,5.229859,2000,10.0,4.0
# From MPEC 2021-W31
P/2021 L2 (Leonard),e,21.0683,266.6631,51.5299,4.051996,0.1208372,0.52160547,17.8240,12/19.0/2021,2000,g 17.0,4.0
# From MPEC 2021-WD8
C/2021 L3 (Borisov),h,02/13.9876/2022,78.5798,344.9680,91.6133,1.001040,8.457345,2000,6.0,4.0
# From MPEC 2021-R75
P/2021 L4 (PANSTARRS),e,16.9618,243.2252,234.5940,3.164898,0.1750510,0.11859903,146.5333,12/19.0/2021,2000,g 13.5,4.0
# From MPEC 2021-P47
P/2021 N1 (ZTF),e,11.5057,301.1648,21.1943,2.977072,0.1918758,0.67676139,37.5021,12/19.0/2021,2000,g 19.0,4.0
# From MPEC 2021-Y10
P/2021 N2 (Fuls),e,13.0628,221.7424,177.3351,6.933111,0.0539898,0.45239779,1.9308,12/19.0/2021,2000,g  9.5,4.0
# From MPEC 2021-W31
C/2021 N3 (PANSTARRS),e,26.7507,337.4942,304.5999,161.3618,0.0004808,0.96463317,0.2342,12/19.0/2021,2000,g  8.5,4.0
# From MPEC 2021-R75
C/2021 O1 (Nishimura),h,08/13.9277/2021,27.5736,41.6075,74.4485,1.000164,0.786952,2000,10.5,4.0
# From MPEC 2021-Y10
C/2021 O3 (PANSTARRS),h,04/21.0458/2022,56.7841,189.0218,299.9882,1.000128,0.287322,2000,10.5,4.0
# From MPEC 2021-W31
C/2021 P1 (PANSTARRS),e,51.6291,359.6732,40.3873,8740,0.0000012,0.99949949,0.0000,06/01.8821/2022,2000,g 11.0,4.0
# From MPEC 2021-W31
C/2021 P2 (PANSTARRS),e,150.0236,31.9988,76.5056,2943,0.0000062,0.99827657,0.0000,01/21.8423/2023,2000,g  9.0,4.0
# From MPEC 2021-W31
P/2021 P3 (PANSTARRS),e,27.1602,358.2382,334.1894,4.418263,0.1061272,0.34000220,21.4570,12/19.0/2021,2000,g 14.0,4.0
# From MPEC 2021-Y10
C/2021 P4 (ATLAS),e,56.3114,348.0958,175.8231,311.3292,0.0001794,0.99652947,0.0000,07/30.3852/2022,2000,g  9.5,4.0
# From MPEC 2021-Y10
C/2021 Q3 (ATLAS),e,77.7773,307.9019,114.0841,74.65231,0.0015281,0.93027985,359.9419,12/19.0/2021,2000,g  8.0,4.0
# From MPEC 2021-UA9
C/2021 Q4 (Fuls),h,06/09.1180/2023,71.4737,183.3324,146.9060,1.003378,7.566861,2000,6.0,4.0
# From MPEC 2021-WD8
P/2021 Q5 (ATLAS),e,10.7341,239.7739,180.8947,3.285723,0.1654846,0.62427321,18.2972,12/19.0/2021,2000,g 15.0,4.0
# From MPEC 2021-Y10
C/2021 Q6 (PANSTARRS),e,161.8470,133.5405,140.8207,8672,0.0000012,0.99899509,0.0000,03/21.6204/2024,2000,g  6.0,4.0
# From MPEC 2021-W31
P/2021 R1 (PANSTARRS),e,5.5213,143.4086,220.3076,8.422067,0.0403252,0.41988512,0.0594,12/19.0/2021,2000,g 11.0,4.0
# From MPEC 2021-W31
C/2021 R2 (PANSTARRS),e,134.4634,16.2786,32.3292,1960,0.0000114,0.99626989,0.0000,12/25.5068/2021,2000,g  7.5,4.0
# From MPEC 2021-W31
P/2021 R3 (PANSTARRS),e,19.9286,304.2406,2.9534,3.778413,0.1341961,0.33171581,27.6586,12/19.0/2021,2000,g 16.0,4.0
# From MPEC 2021-W31
P/2021 R4 (Wierzchos),e,21.0400,321.2559,56.6296,5.618260,0.0740119,0.58599264,4.8898,12/19.0/2021,2000,g 16.0,4.0
# From MPEC 2021-Y10
P/2021 R5 (Rankin),e,7.8532,219.9607,167.3448,4.796481,0.0938253,0.30725357,357.7460,12/19.0/2021,2000,g 12.0,4.0
# From MPEC 2021-W31
P/2021 R6 (Groeller),e,34.9269,176.1150,220.7258,6.273195,0.0627294,0.59316936,3.0186,12/19.0/2021,2000,g 14.5,4.0
# From MPEC 2021-W31
C/2021 R7 (PANSTARRS),e,158.8551,170.1442,140.0254,1209,0.0000234,0.99533504,0.0000,04/14.7865/2021,2000,g 10.5,4.0
# From MPEC 2021-Y10
P/2021 R8 (Sheppard),e,2.2033,167.0274,190.7808,3.017557,0.1880273,0.29380911,13.6354,12/19.0/2021,2000,g 18.5,4.0
# From MPEC 2021-Y10
C/2021 S1 (ATLAS),h,03/01.2003/2022,52.0918,299.8706,148.2143,1.000700,6.118817,2000,7.0,4.0
# From MPEC 2021-Y10
C/2021 S3 (PANSTARRS),e,58.5476,215.6504,6.9178,3758,0.0000043,0.99964918,0.0000,02/14.8627/2024,2000,g  5.5,4.0
# From MPEC 2021-Y10
C/2021 S4 (Tsuchinshan),e,17.4814,5.4988,72.7531,162.8966,0.0004741,0.95892062,359.6477,12/19.0/2021,2000,g  6.5,4.0
# From MPEC 2021-Y10
C/2021 T1 (Lemmon),e,140.3482,56.8114,51.5015,1007,0.0000308,0.99696308,0.0000,10/14.0872/2021,2000,g 12.5,4.0
# From MPEC 2021-Y10
C/2021 T2 (Fuls),h,06/07.8991/2022,117.5255,223.2318,263.5972,1.000109,1.247622,2000,12.0,4.0
# From MPEC 2021-Y10
C/2021 T4 (Lemmon),e,160.7569,257.7981,329.7812,8464,0.0000013,0.99982489,0.0000,07/31.5571/2023,2000,g  7.5,4.0
# From MPEC 2021-Y10
P/2021 U1 (Wierzchos),e,30.5606,246.7895,145.0458,8.511752,0.0396895,0.71275051,3.1363,12/19.0/2021,2000,g 14.5,4.0
# From MPEC 2021-Y10
P/2021 U3 (Attard-Maury),e,69.9656,75.1128,335.2126,4.193204,0.1147850,0.55001892,6.3286,12/19.0/2021,2000,g 15.5,4.0
# From MPEC 2021-W31
C/2021 U4 (Leonard),e,152.8773,241.8031,237.2788,44.83627,0.0032829,0.96013429,359.9903,12/19.0/2021,2000,g 17.0,4.0
# From MPEC 2021-Y10
C/2021 U5 (Catalina),e,39.0438,182.8052,321.3631,313.4912,0.0001776,0.99245448,0.0000,01/26.4119/2022,2000,g 13.0,4.0
# From MPEC 2021-Y10
C/2021 V1 (Rankin),e,71.4415,207.6530,195.1049,661.1523,0.0000580,0.99544206,0.0000,04/30.3685/2022,2000,g 13.0,4.0
# From MPEC 2021-Y10
P/2021 V2 (Fuls),e,12.6957,232.2926,259.8328,9.033462,0.0363013,0.61288352,345.5303,12/19.0/2021,2000,g 10.0,4.0
# From MPEC 2021-Y10
P/2021 V3 (PANSTARRS),e,3.6898,245.8688,206.6970,4.558262,0.1012757,0.25403106,335.4554,12/19.0/2021,2000,g 13.0,4.0
# From MPEC 2021-Y10
A/2021 X1,e,140.1327,10.6196,334.7898,3616,0.0000045,0.99910771,0.0000,05/27.4630/2023,2000,g 11.5,2.0
# From  98, 1083
1P/Halley,e,162.2306,58.9198,111.8497,17.87256,0.0130444,0.96627695,170.8014,12/19.0/2021,2000,g  4.0,6.0
# From MPEC 2021-TD0
2P/Encke,e,11.7727,334.5071,186.6893,2.218467,0.2982803,0.84970803,160.7617,12/19.0/2021,2000,g 11.5,6.0
# From MPEC 2021-Y10
4P/Faye,e,8.0083,192.9310,207.0018,3.823872,0.1318102,0.57663723,13.3340,12/19.0/2021,2000,g  8.0,6.0
# From MPEC 2021-Y10
6P/d'Arrest,e,19.5122,138.9351,178.0925,3.498049,0.1506487,0.61276437,13.8948,12/19.0/2021,2000,g  7.5,16.0
# From MPEC 2021-Y10
7P/Pons-Winnecke,e,22.3623,93.3634,172.5894,3.413565,0.1562758,0.63850283,32.1770,12/19.0/2021,2000,g 10.0,6.0
# From MPEC 2021-Y10
8P/Tuttle,e,54.9110,270.2022,207.4883,5.707144,0.0722896,0.82022600,8.1878,12/19.0/2021,2000,g  8.0,8.0
# From MPEC 2021-Y10
9P/Tempel,e,10.4699,68.7144,179.3484,3.146139,0.1766189,0.50916525,346.5860,12/19.0/2021,2000,g  5.5,10.0
# From MPEC 2021-Y10
10P/Tempel,e,12.0393,117.8092,195.4983,3.060753,0.1840609,0.53848852,49.6506,12/19.0/2021,2000,g  5.0,10.0
# From MPEC 2021-UA9
11P/Tempel-Swift-LINEAR,e,14.4215,238.8984,167.9618,3.283757,0.1656333,0.57717183,64.2159,12/19.0/2021,2000,g 17.0,4.0
# From  27, 604
12P/Pons-Brooks,e,74.1474,255.7892,198.9904,17.15197,0.0138750,0.95442136,348.1554,12/19.0/2021,2000,g  5.0,6.0
# From  27, 604
13P/Olbers,e,44.6193,85.9284,64.4179,16.74192,0.0143879,0.92981362,346.6876,12/19.0/2021,2000,g  5.0,6.0
# From MPEC 2021-F20
14P/Wolf,e,27.9182,202.0471,159.0385,4.258471,0.1121563,0.35709286,165.6259,12/19.0/2021,2000,g  5.5,12.0
# From MPEC 2021-Y10
15P/Finlay,e,6.7977,13.7125,347.8317,3.506100,0.1501301,0.71704646,23.7990,12/19.0/2021,2000,g 12.0,4.0
# From MPEC 2021-W31
16P/Brooks,e,3.0117,138.8704,245.1935,3.656690,0.1409522,0.48633499,34.4923,12/19.0/2021,2000,g  7.5,10.0
# From MPEC 2021-Y10
17P/Holmes,e,19.0320,326.6210,24.4913,3.635815,0.1421679,0.42763528,42.9531,12/19.0/2021,2000,g 10.0,6.0
# From MPEC 2021-Y10
19P/Borrelly,e,29.3046,74.2473,351.9165,3.605079,0.1439899,0.63765698,353.5456,12/19.0/2021,2000,g  4.5,10.0
# From MPEC 2021-F20
21P/Giacobini-Zinner,e,32.0462,195.3459,172.8662,3.495570,0.1508089,0.71110050,180.2151,12/19.0/2021,2000,g 11.4,4.0
# From MPEC 2021-S45
22P/Kopff,e,4.7420,120.8345,163.0175,3.440274,0.1544595,0.54875047,346.2336,12/19.0/2021,2000,g  3.0,10.4
# From MPC 14747
23P/Brorsen-Metcalf,e,19.1502,312.3527,128.8606,16.94788,0.0141264,0.97156322,0.0000,08/04.9377/1989,2000,g 10.0,6.0
# From MPC110085
24P/Schaumasse,e,11.5216,78.5099,58.3249,4.053610,0.1207650,0.70803257,180.9322,12/19.0/2021,2000,g  6.5,14.0
# From MPEC 2021-WD8
26P/Grigg-Skjellerup,e,22.4322,211.5391,2.1699,3.014563,0.1883074,0.64029142,221.2891,12/19.0/2021,2000,g 12.0,16.0
# From MPC 78188
27P/Crommelin,e,29.2470,250.6212,195.9182,9.183816,0.0354135,0.91844573,134.6359,12/19.0/2021,2000,g 12.0,8.0
# From MPEC 2021-Y10
28P/Neujmin,e,14.3121,346.3320,347.4186,6.976260,0.0534897,0.77373130,15.0906,12/19.0/2021,2000,g  8.5,6.0
# From MPEC 2021-Y10
29P/Schwassmann-Wachmann,e,9.3664,312.3805,49.7150,6.041501,0.0663723,0.04478472,65.7430,12/19.0/2021,2000,g  4.0,4.0
# From MPC110085
30P/Reinmuth,e,8.1666,118.1066,9.5935,3.706676,0.1381106,0.52163512,226.0356,12/19.0/2021,2000,g  9.5,6.0
# From MPEC 2021-F20
31P/Schwassmann-Wachmann,e,4.5475,114.1086,18.0625,4.237678,0.1129828,0.19213931,101.5392,12/19.0/2021,2000,g 13.1,4.0
# From MPC 92276
32P/Comas Sola,e,9.8704,55.5934,54.6931,4.516871,0.1026709,0.55927266,272.3364,12/19.0/2021,2000,g  6.5,8.0
# From MPEC 2013-O31
33P/Daniel,e,22.2983,66.3152,20.5176,4.086098,0.1193276,0.45165066,233.6082,12/19.0/2021,2000,g 10.0,12.0
# From  15, 452
35P/Herschel-Rigollet,e,65.226,356.702,28.961,28.5567,0.006459,0.9740225,0.000,01/11.2344/2092,2000,g  9.0,4.0
# From MPEC 2021-S45
36P/Whipple,e,9.9520,181.8460,200.9077,4.134632,0.1172327,0.26901910,66.3230,12/19.0/2021,2000,g  8.5,6.0
# From MPEC 2021-F20
37P/Forbes,e,8.9564,314.5626,330.1215,3.460706,0.1530936,0.53360062,202.8154,12/19.0/2021,2000,g 13.8,4.0
# From MPEC 2018-S50
38P/Stephan-Oterma,e,18.3688,77.9497,359.5011,11.23675,0.0261664,0.85908357,29.6687,12/19.0/2021,2000,g  3.5,12.0
# From MPEC 2020-W26
39P/Oterma,e,1.5551,299.0227,96.8093,7.367523,0.0492858,0.22304264,333.9476,12/19.0/2021,2000,g  7.0,6.0
# From MPC100283
40P/Vaisala,e,11.4694,133.7792,47.3984,4.953177,0.0894084,0.62965307,232.1881,12/19.0/2021,2000,g  5.5,12.0
# From MPC105240
41P/Tuttle-Giacobini-Kresak,e,9.2208,140.9883,62.2275,3.087797,0.1816481,0.65995768,311.2418,12/19.0/2021,2000,g 10.0,16.0
# From MPC 94283
